<html><!--
 Page saved with SingleFile 
 url: https://ssd.jpl.nasa.gov/horizons_batch.cgi?batch=1&OUT_UNITS=%27AU-D%27&COMMAND=%27299%27&MAKE_EPHEM=%27YES%27&CENTER=%27@sun%27%20%20&TABLE_TYPE=%27VECTOR%27&START_TIME=%272020-04-03%2017:00%27&STOP_TIME=%272020-04-03%2018:00%27&STEP_SIZE=%2715%20h%27%20%20&QUANTITIES=%271%27&CSV_FORMAT=%27NO%27 
 saved date: Fri Apr 03 2020 17:13:28 GMT-0400 (Eastern Daylight Time)
--><meta charset=utf-8><link type=image/x-icon rel="shortcut icon" href="data:image/x-icon;base64,AAABAAEAEBAAAAEACABoBQAAFgAAACgAAAAQAAAAIAAAAAEACAAAAAAAAAAAAAAAAAAAAAAAAAAAAAAAAAAAAAAAR7GxACu+vgB1dXUAb29vAGtrawBjY2MAXV1dAFdXVwA5OTkANTU1AOTk5AAvLy8AJycnACvU1AAbGxsAGRkZAA8PDwAJCQkAAQEBAAnv7wCWlpYAlJSUAIyMjAB8fHwAZmZmAGRkZABiYmIAYGBgAFBQUAD///8ASEhIADg4OAAwMDAA39/fAGqNjQAgICAAHBwcABQUFAAuw8MAAgICAAAAAAAAAAAAAAAAAAAAAAAAAAAAAAAAAAAAAAAAAAAAAAAAAAAAAAAAAAAAAAAAAAAAAAAAAAAAAAAAAAAAAAAAAAAAAAAAAAAAAAAAAAAAAAAAAAAAAAAAAAAAAAAAAAAAAAAAAAAAAAAAAAAAAAAAAAAAAAAAAAAAAAAAAAAAAAAAAAAAAAAAAAAAAAAAAAAAAAAAAAAAAAAAAAAAAAAAAAAAAAAAAAAAAAAAAAAAAAAAAAAAAAAAAAAAAAAAAAAAAAAAAAAAAAAAAAAAAAAAAAAAAAAAAAAAAAAAAAAAAAAAAAAAAAAAAAAAAAAAAAAAAAAAAAAAAAAAAAAAAAAAAAAAAAAAAAAAAAAAAAAAAAAAAAAAAAAAAAAAAAAAAAAAAAAAAAAAAAAAAAAAAAAAAAAAAAAAAAAAAAAAAAAAAAAAAAAAAAAAAAAAAAAAAAAAAAAAAAAAAAAAAAAAAAAAAAAAAAAAAAAAAAAAAAAAAAAAAAAAAAAAAAAAAAAAAAAAAAAAAAAAAAAAAAAAAAAAAAAAAAAAAAAAAAAAAAAAAAAAAAAAAAAAAAAAAAAAAAAAAAAAAAAAAAAAAAAAAAAAAAAAAAAAAAAAAAAAAAAAAAAAAAAAAAAAAAAAAAAAAAAAAAAAAAAAAAAAAAAAAAAAAAAAAAAAAAAAAAAAAAAAAAAAAAAAAAAAAAAAAAAAAAAAAAAAAAAAAAAAAAAAAAAAAAAAAAAAAAAAAAAAAAAAAAAAAAAAAAAAAAAAAAAAAAAAAAAAAAAAAAAAAAAAAAAAAAAAAAAAAAAAAAAAAAAAAAAAAAAAAAAAAAAAAAAAAAAAAAAAAAAAAAAAAAAAAAAAAAAAAAAAAAAAAAAAAAAAAAAAAAAAAAAAAAAAAAAAAAAAAAAAAAAAAAAAAAAAAAAAAAAAAAAAAAAAAAAAAAAAAAAAAAAAAAAAAAAAAAAAAAAAAAAAAAAAAAAAAAAAAAAAAAAAAAAAAAAAAAAAAAAAAAAAAAAAAAAAAAAAAAAAAAAAAAAAAAAAAAAAAAAAAAAAAAAAAAAAAAAAAAAAAAAAAAAAAAAAAAAAAAAAAAAAAAAAAAAAAAAAAAAAAAAAAAAAAAAAAAAAAAAAAAAAAAAAAAAAAAAAAAAAAAAAAAAAAAAAAAAWAAAAAAAAAAAAAAAAAAAAAAAAAAAAAAAAAAAAAAAAAAAAAAAAHgAAAAAAAAAAAAAAAAAAAAAAAAAeAAAkEwAAAAAAAAAVAwAAAAAAGyEPEigLAAAAHBgAAAAAExElFwgJCgAAAAAAAAAAABIdBAEaHygAAAAAAAAAAAAQBgIUDhkAAAAAAAAAAAAADBsjJwUmAAAAAAAAAAAAABMmHQcNAAAAAAAeAAAAAAAAABIPAAAAAB4AAAAAAAAAIgAAAAAAAAAAAAAAAAAAAAAAAAAAAAAAAAAAAAAAAAAAAAAAACIgAAAAHgAAAAAAAAAAAAAAAAAAAAAAAAAAAAAAAAAAAAAAAAAAAAAAAAAAAAAAAAAAAAAAAAAAAAAAAAAAAAAAAAAAAAAAAAAAAAAAAAAAAAAAAAAAAAA="><link rel=canonical href="https://ssd.jpl.nasa.gov/horizons_batch.cgi?batch=1&amp;OUT_UNITS=%27AU-D%27&amp;COMMAND=%27299%27&amp;MAKE_EPHEM=%27YES%27&amp;CENTER=%27@sun%27%20%20&amp;TABLE_TYPE=%27VECTOR%27&amp;START_TIME=%272020-04-03%2017:00%27&amp;STOP_TIME=%272020-04-03%2018:00%27&amp;STEP_SIZE=%2715%20h%27%20%20&amp;QUANTITIES=%271%27&amp;CSV_FORMAT=%27NO%27"><body><pre style=word-wrap:break-word;white-space:pre-wrap>*******************************************************************************
 Revised: July 31, 2013                 Venus                           299 / 2
 
 PHYSICAL DATA (updated 2019-Apr-22):
  Vol. Mean Radius (km) =  6051.84+-0.01 Density (g/cm^3)      =  5.204
  Mass x10^23 (kg)      =    48.685      Volume (x10^10 km^3)  = 92.843
  Sidereal rot. period  =   243.018484 d Sid. Rot. Rate (rad/s)= -0.00000029924
  Mean solar day        =   116.7490 d   Equ. gravity  m/s^2   =  8.870
  Mom. of Inertia       =     0.33       Core radius (km)      = ~3200
  Geometric Albedo      =     0.65       Potential Love # k2   = ~0.25
  GM (km^3/s^2)         = 324858.592     Equatorial Radius, Re = 6051.893 km
  GM 1-sigma (km^3/s^2) =    +-0.006     Mass ratio (Sun/Venus)= 408523.72
  Atmos. pressure (bar) =  90            Max. angular diam.    =   60.2"
  Mean Temperature (K)  = 735            Visual mag. V(1,0)    =   -4.40
  Obliquity to orbit    = 177.3 deg      Hill's sphere rad.,Rp =  167.1
  Sidereal orb. per., y =   0.61519726   Orbit speed, km/s     =   35.021
  Sidereal orb. per., d = 224.70079922   Escape speed, km/s    =   10.361
                                 Perihelion  Aphelion    Mean
  Solar Constant (W/m^2)         2759        2650        2614
  Maximum Planetary IR (W/m^2)    153         153         153
  Minimum Planetary IR (W/m^2)    153         153         153
*******************************************************************************
 
 
*******************************************************************************
Ephemeris / WWW_USER Fri Apr  3 14:13:28 2020 Pasadena, USA      / Horizons    
*******************************************************************************
Target body name: Venus (299)                     {source: DE431mx}
Center body name: Sun (10)                        {source: DE431mx}
Center-site name: BODY CENTER
*******************************************************************************
Start time      : A.D. 2020-Apr-03 17:00:00.0000 TDB
Stop  time      : A.D. 2020-Apr-03 18:00:00.0000 TDB
Step-size       : 900 minutes
*******************************************************************************
Center geodetic : 0.00000000,0.00000000,0.0000000 {E-lon(deg),Lat(deg),Alt(km)}
Center cylindric: 0.00000000,0.00000000,0.0000000 {E-lon(deg),Dxy(km),Dz(km)}
Center radii    : 696000.0 x 696000.0 x 696000.0 k{Equator, meridian, pole}    
Output units    : AU-D                                                         
Output type     : GEOMETRIC cartesian states
Output format   : 3 (position, velocity, LT, range, range-rate)
Reference frame : ICRF/J2000.0                                                 
Coordinate systm: Ecliptic and Mean Equinox of Reference Epoch                 
*******************************************************************************
JDTDB
   X     Y     Z
   VX    VY    VZ
   LT    RG    RR
*******************************************************************************
$$SOE
2458943.208333333 = A.D. 2020-Apr-03 17:00:00.0000 TDB 
 X =-6.512904571291017E-01 Y = 3.013864934507290E-01 Z = 4.171937763507250E-02
 VX=-8.583520572848349E-03 VY=-1.845137907146328E-02 VZ= 2.421458130571317E-04
 LT= 4.151764542277184E-03 RG= 7.188557466225183E-01 RR= 5.490777919227592E-05
$$EOE
*******************************************************************************
Coordinate system description:

  Ecliptic and Mean Equinox of Reference Epoch

    Reference epoch: J2000.0
    XY-plane: plane of the Earth's orbit at the reference epoch
              Note: obliquity of 84381.448 arcseconds wrt ICRF equator (IAU76)
    X-axis  : out along ascending node of instantaneous plane of the Earth's
              orbit and the Earth's mean equator at the reference epoch
    Z-axis  : perpendicular to the xy-plane in the directional (+ or -) sense
              of Earth's north pole at the reference epoch.

  Symbol meaning [1 au= 149597870.700 km, 1 day= 86400.0 s]:

    JDTDB    Julian Day Number, Barycentric Dynamical Time
      X      X-component of position vector (au)                               
      Y      Y-component of position vector (au)                               
      Z      Z-component of position vector (au)                               
      VX     X-component of velocity vector (au/day)                           
      VY     Y-component of velocity vector (au/day)                           
      VZ     Z-component of velocity vector (au/day)                           
      LT     One-way down-leg Newtonian light-time (day)                       
      RG     Range; distance from coordinate center (au)                       
      RR     Range-rate; radial velocity wrt coord. center (au/day)            

Geometric states/elements have no aberrations applied.

 Computations by ...
     Solar System Dynamics Group, Horizons On-Line Ephemeris System
     4800 Oak Grove Drive, Jet Propulsion Laboratory
     Pasadena, CA  91109   USA
     Information: http://ssd.jpl.nasa.gov/
     Connect    : telnet://ssd.jpl.nasa.gov:6775  (via browser)
                  http://ssd.jpl.nasa.gov/?horizons
                  telnet ssd.jpl.nasa.gov 6775    (via command-line)
     Author     : Jon.D.Giorgini@jpl.nasa.gov
*******************************************************************************

!$$SOF
OUT_UNITS = 'AU-D'
COMMAND = '299'
MAKE_EPHEM = 'YES'
CENTER = '@sun'  
TABLE_TYPE = 'VECTOR'
START_TIME = '2020-04-03 17:00'
STOP_TIME = '2020-04-03 18:00'
STEP_SIZE = '15 h'  
QUANTITIES = '1'
CSV_FORMAT = 'NO'
</pre>